[{"OBJECT_NAME":"GOES 18","OBJECT_ID":"2022-021A","EPOCH":"2026-03-05T19:38:22.378848","MEAN_MOTION":1.00272735,"ECCENTRICITY":6.917e-5,"INCLINATION":0.0333,"RA_OF_ASC_NODE":75.5863,"ARG_OF_PERICENTER":327.0556,"MEAN_ANOMALY":278.4855,"EPHEMERIS_TYPE":0,"CLASSIFICATION_TYPE":"U","NORAD_CAT_ID":51850,"ELEMENT_SET_NO":999,"REV_AT_EPOCH":555,"BSTAR":0,"MEAN_MOTION_DOT":9.0e-7,"MEAN_MOTION_DDOT":0},{"OBJECT_NAME":"GOES 19","OBJECT_ID":"2024-119A","EPOCH":"2026-03-05T22:11:53.336832","MEAN_MOTION":1.00271692,"ECCENTRICITY":0.00010984,"INCLINATION":0.0057,"RA_OF_ASC_NODE":76.8477,"ARG_OF_PERICENTER":312.7694,"MEAN_ANOMALY":31.8042,"EPHEMERIS_TYPE":0,"CLASSIFICATION_TYPE":"U","NORAD_CAT_ID":60133,"ELEMENT_SET_NO":999,"REV_AT_EPOCH":592,"BSTAR":0,"MEAN_MOTION_DOT":-2.54e-6,"MEAN_MOTION_DDOT":0}]
